STARLINK-5571           
1 55380U 23013BB  23036.58335648 -.00777062  00000+0 -33848-2 0  9994
2 55380  43.0000 342.1968 0004814 267.7215  50.3854 15.85612316  1307
STARLINK-5575           
1 55381U 23013BC  23036.58335648 -.00774625  00000+0 -33677-2 0  9997
2 55381  43.0002 342.1943 0005355 268.0522  51.0076 15.85637924  1305
STARLINK-5576           
1 55382U 23013BD  23036.58335648 -.00773520  00000+0 -33688-2 0  9993
2 55382  43.0001 342.1977 0004995 267.9520  49.7186 15.85604940  1305
STARLINK-5531           
1 55383U 23013BE  23036.58335648 -.00760709  00000+0 -33018-2 0  9996
2 55383  42.9998 342.1933 0005190 267.8695  51.3800 15.85641551  1302
STARLINK-5537           
1 55384U 23013BF  23036.58335648 -.00775579  00000+0 -33748-2 0  9998
2 55384  43.0000 342.1960 0005191 268.2501  50.0436 15.85624749  1302
STARLINK-5556           
1 55385U 23013BG  23036.58335648 -.00777033  00000+0 -33742-2 0  9990
2 55385  42.9999 342.1909 0004786 267.8299  52.4844 15.85675868  1306
STARLINK-5555           
1 55386U 23013BH  23036.58335648 -.00774017  00000+0 -33593-2 0  9994
2 55386  43.0002 342.1923 0005509 268.1047  51.7676 15.85669055  1305
FALCON 9 DEB            
1 55387U 23013BJ  23035.99275463  .03924187  89100-5  70251-3 0  9990
2 55387  42.9815 344.4424 0043529 224.1541 135.5869 16.28455827  1563
FALCON 9 DEB            
1 55388U 23013BK  23036.22907905  .07113082  90364-5  57592-3 0  9996
2 55388  42.9842 342.7644 0028226 233.1372 126.6931 16.37260160  1608
FALCON 9 DEB            
1 55389U 23013BL  23035.91091897  .10709993  91715-5  31021-3 0  9992
2 55389  42.9853 344.6825 0020306 227.1694 132.7494 16.43193505  1555
FALCON 9 DEB            
1 55390U 23013BM  23036.28355535  .08553785  90860-5  34007-3 0  9997
2 55390  42.9870 342.3057 0026111 230.6476 129.2103 16.40776175  1617
APSTAR 6E SPS           
1 55447U 23005C   23036.08571809 -.00000072  00000+0 -15187-1 0  9990
2 55447  28.6612 323.7839 2302987 163.4343 205.6114  7.60508696   389
